OBJECT_NAME,OBJECT_ID,EPOCH,MEAN_MOTION,ECCENTRICITY,INCLINATION,RA_OF_ASC_NODE,ARG_OF_PERICENTER,MEAN_ANOMALY,EPHEMERIS_TYPE,CLASSIFICATION_TYPE,NORAD_CAT_ID,ELEMENT_SET_NO,REV_AT_EPOCH,BSTAR,MEAN_MOTION_DOT,MEAN_MOTION_DDOT
SWARM A,2013-067B,2026-07-02T13:47:21.995232,15.51245991,.00032266,87.3305,50.5224,96.6164,263.5464,0,U,39452,999,70863,.18189645E-3,.10689E-3,0
SWARM C,2013-067C,2026-07-02T13:47:13.377696,15.51244772,.00032029,87.3305,49.1033,96.7192,263.4434,0,U,39453,999,70859,.18035636E-3,.10598E-3,0
BRITE-CA1 (TORONTO),2014-033L,2026-07-02T14:19:42.763872,14.72702923,.00776033,97.9759,312.2426,226.8808,132.5892,0,U,40020,999,64448,.18039901E-3,.1152E-4,0
OCO 2,2014-035A,2026-07-02T14:32:44.717568,14.57124059,.00014925,98.2019,124.6645,82.1938,277.9430,0,U,40059,999,63829,.11623011E-3,.479E-5,0
BRITE-PL2 (HEWELIUSZ),2014-049B,2026-07-02T13:41:19.949856,14.94649737,.00150789,97.9112,295.6901,61.6638,298.6101,0,U,40119,999,64374,.18404247E-3,.1939E-4,0
MMS 1,2015-011A,2026-07-02T14:00:01.999872,0.28329027,.83165387,72.3091,348.6025,167.6619,69.4646,0,U,40482,999,139,0,-.937E-5,0
MMS 2,2015-011B,2026-07-02T14:00:01.999872,0.28328963,.83193487,72.3129,348.6016,167.6650,69.4543,0,U,40483,999,139,0,-.937E-5,0
MMS 3,2015-011C,2026-07-02T14:00:01.999872,0.28328997,.83177375,72.3139,348.6129,167.6727,69.4274,0,U,40484,999,139,0,-.936E-5,0
MMS 4,2015-011D,2026-07-02T14:00:01.999872,0.28329019,.83176513,72.3101,348.5962,167.6825,69.4212,0,U,40485,999,139,0,-.937E-5,0
ASTROSAT,2015-052A,2026-07-02T03:51:15.719040,14.82533398,.00085641,5.9977,47.5602,250.6263,109.2939,0,U,40930,999,58205,.13028684E-3,.1744E-4,0
DAMPE,2015-078A,2026-07-02T14:16:53.331744,15.30826646,.00129502,97.4553,189.1379,28.7631,331.4322,0,U,41173,999,58690,.61700688E-4,.1763E-4,0
PISAT,2016-059B,2026-07-02T11:16:40.499616,14.69011061,.00296474,97.8182,183.2661,153.9873,206.2831,0,U,41784,999,52198,.19877741E-3,.1126E-4,0
HXMT (HUIYAN),2017-034A,2026-07-02T14:12:11.138112,15.18591976,.00327342,43.0145,97.2575,244.0583,115.6891,0,U,42758,999,50000,.24516225E-3,.4993E-4,0
FLYING LAPTOP,2017-042G,2026-07-02T15:35:26.233152,15.01246024,.00200023,97.4759,338.5939,72.5397,287.8012,0,U,42831,999,48877,.34303477E-3,.4368E-4,0
ZHANGHENG 1-01 (CSES-1),2018-015C,2026-07-02T14:24:13.805856,15.21014815,.00177486,97.6883,349.5662,209.5529,150.4704,0,U,43194,999,46698,.38349424E-3,.8472E-4,0
SALSAT,2020-068K,2026-07-02T06:06:00.402912,15.30013367,.00080377,97.8847,187.2381,243.7769,116.2645,0,U,46495,999,31766,.2998701E-3,.8637E-4,0
IXPE,2021-121A,2026-07-02T16:00:01.999584,15.10393977,.00071642,0.2293,200.3881,310.0232,162.6568,0,U,49954,999,580,.60399317E-3,.11159E-3,0
SMILE,2026-109A,2026-06-07T09:11:54.544416,7.54049028,.3310191,69.9787,209.3069,288.5544,45.7342,0,U,69123,999,248,-.36778157E-3,-.41E-6,0
