SWARM A                 
1 39452U 13067B   26183.57456013  .00010689  00000+0  18190-3 0  9996
2 39452  87.3305  50.5224 0003226  96.6164 263.5464 15.51245991708630
SWARM C                 
1 39453U 13067C   26183.57446039  .00010598  00000+0  18036-3 0  9992
2 39453  87.3305  49.1033 0003202  96.7192 263.4434 15.51244772708596
BRITE-CA1 (TORONTO)     
1 40020U 14033L   26183.59702273  .00001152  00000+0  18040-3 0  9996
2 40020  97.9759 312.2426 0077603 226.8808 132.5892 14.72702923644484
OCO 2                   
1 40059U 14035A   26183.60607312  .00000479  00000+0  11623-3 0  9991
2 40059  98.2019 124.6645 0001492  82.1938 277.9430 14.57124059638292
BRITE-PL2 (HEWELIUSZ)   
1 40119U 14049B   26183.57036979  .00001939  00000+0  18404-3 0  9990
2 40119  97.9112 295.6901 0015078  61.6638 298.6101 14.94649737643744
MMS 1                   
1 40482U 15011A   26183.58335648 -.00000937  00000+0  00000+0 0  9996
2 40482  72.3091 348.6025 8316538 167.6619  69.4646  0.28329027  1391
MMS 2                   
1 40483U 15011B   26183.58335648 -.00000937  00000+0  00000+0 0  9997
2 40483  72.3129 348.6016 8319348 167.6650  69.4543  0.28328963  1395
MMS 3                   
1 40484U 15011C   26183.58335648 -.00000936  00000+0  00000+0 0  9997
2 40484  72.3139 348.6129 8317737 167.6727  69.4274  0.28328997  1395
MMS 4                   
1 40485U 15011D   26183.58335648 -.00000937  00000+0  00000+0 0  9999
2 40485  72.3101 348.5962 8317651 167.6825  69.4212  0.28329019  1391
ASTROSAT                
1 40930U 15052A   26183.16059860  .00001744  00000+0  13029-3 0  9997
2 40930   5.9977  47.5602 0008564 250.6263 109.2939 14.82533398582055
DAMPE                   
1 41173U 15078A   26183.59506171  .00001763  00000+0  61701-4 0  9996
2 41173  97.4553 189.1379 0012950  28.7631 331.4322 15.30826646586900
PISAT                   
1 41784U 16059B   26183.46991319  .00001126  00000+0  19878-3 0  9992
2 41784  97.8182 183.2661 0029647 153.9873 206.2831 14.69011061521988
HXMT (HUIYAN)           
1 42758U 17034A   26183.59179558  .00004993  00000+0  24516-3 0  9995
2 42758  43.0145  97.2575 0032734 244.0583 115.6891 15.18591976500003
FLYING LAPTOP           
1 42831U 17042G   26183.64960918  .00004368  00000+0  34303-3 0  9991
2 42831  97.4759 338.5939 0020002  72.5397 287.8012 15.01246024488775
ZHANGHENG 1-01 (CSES-1) 
1 43194U 18015C   26183.60015979  .00008472  00000+0  38349-3 0  9993
2 43194  97.6883 349.5662 0017748 209.5529 150.4704 15.21014815466980
SALSAT                  
1 46495U 20068K   26183.25417133  .00008637  00000+0  29987-3 0  9991
2 46495  97.8847 187.2381 0008037 243.7769 116.2645 15.30013367317666
IXPE                    
1 49954U 21121A   26183.66668981  .00011159  00000+0  60399-3 0  9994
2 49954   0.2293 200.3881 0007164 310.0232 162.6568 15.10393977  5802
SMILE                   
1 69123U 26109A   26158.38327019 -.00000041  00000+0 -36778-3 0  9994
2 69123  69.9787 209.3069 3310191 288.5544  45.7342  7.54049028  2480
